[
  {
    "name": "ONEWEB-0432",
    "noradId": "50502",
    "line1": "1 50502U 21132AK  26190.39049751  .00000042  00000+0  74702-4 0  9996",
    "line2": "2 50502  87.9190 331.0270 0002310 100.0785 260.0608 13.18686360224508"
  },
  {
    "name": "ONEWEB-0440",
    "noradId": "50503",
    "line1": "1 50503U 21132AL  26191.33824001  .00000101  00000+0  22293-3 0  9994",
    "line2": "2 50503  87.9192 330.8503 0001601 104.7714 255.3596 13.18686915224624"
  },
  {
    "name": "ONEWEB-0450",
    "noradId": "50504",
    "line1": "1 50504U 21132AM  26190.64874852 -.00000016  00000+0 -72286-4 0  9992",
    "line2": "2 50504  87.9180 330.9902 0001909 103.2252 256.9093 13.18686595224564"
  },
  {
    "name": "ONEWEB-0410",
    "noradId": "51622",
    "line1": "1 51622U 22012A   26191.45374344  .00000060  00000+0  12074-3 0  9998",
    "line2": "2 51622  87.9150   1.2302 0002046  52.5028 307.6289 13.17649809216765"
  },
  {
    "name": "ONEWEB-0411",
    "noradId": "51623",
    "line1": "1 51623U 22012B   26190.99696510  .00000407  00000+0  11290-2 0  9992",
    "line2": "2 51623  87.8829  31.7225 0002232  98.5318 261.6062 13.10377425212274"
  },
  {
    "name": "ONEWEB-0415",
    "noradId": "51624",
    "line1": "1 51624U 22012C   26190.99356253  .00000239  00000+0  64742-3 0  9994",
    "line2": "2 51624  87.8822  31.7213 0002141  88.5142 271.6230 13.10378218212277"
  },
  {
    "name": "ONEWEB-0416",
    "noradId": "51625",
    "line1": "1 51625U 22012D   26191.00545390  .00000662  00000+0  18598-2 0  9997",
    "line2": "2 51625  87.8813  31.7359 0002228  85.8124 274.3258 13.10375254212317"
  },
  {
    "name": "ONEWEB-0422",
    "noradId": "51626",
    "line1": "1 51626U 22012E   26191.46386564  .00000045  00000+0  82731-4 0  9991",
    "line2": "2 51626  87.9147   1.2289 0001721 112.3828 247.7486 13.17650675216879"
  },
  {
    "name": "ONEWEB-0423",
    "noradId": "51627",
    "line1": "1 51627U 22012F   26191.45711512  .00000025  00000+0  29984-4 0  9995",
    "line2": "2 51627  87.9138   1.2344 0001794  88.6666 271.4671 13.17647832216766"
  },
  {
    "name": "ONEWEB-0425",
    "noradId": "51628",
    "line1": "1 51628U 22012G   26190.48113691  .00000491  00000+0  13697-2 0  9991",
    "line2": "2 51628  87.8812  31.8246 0001933  74.5205 285.6135 13.10372041212244"
  },
  {
    "name": "ONEWEB-0428",
    "noradId": "51629",
    "line1": "1 51629U 22012H   26190.53711991  .00000424  00000+0  11794-2 0  9997",
    "line2": "2 51629  87.8816  31.8200 0001843  86.6305 273.5033 13.10377409212217"
  },
  {
    "name": "ONEWEB-0431",
    "noradId": "51630",
    "line1": "1 51630U 22012J   26190.50639536 -.00000582  00000+0 -17026-2 0  9991",
    "line2": "2 51630  87.8820  31.8191 0002247  99.8187 260.3194 13.10370980212260"
  },
  {
    "name": "ONEWEB-0434",
    "noradId": "51631",
    "line1": "1 51631U 22012K   26191.01916842  .00000711  00000+0  20019-2 0  9995",
    "line2": "2 51631  87.8818  31.7428 0001718  65.8938 294.2369 13.10370704212319"
  },
  {
    "name": "ONEWEB-0435",
    "noradId": "51632",
    "line1": "1 51632U 22012L   26191.86574225  .00000352  00000+0  97107-3 0  9998",
    "line2": "2 51632  87.8811  31.5581 0001798  97.0130 263.1202 13.10373164212415"
  },
  {
    "name": "ONEWEB-0436",
    "noradId": "51633",
    "line1": "1 51633U 22012M   26190.76524654  .00000098  00000+0  21881-3 0  9991",
    "line2": "2 51633  87.9148   1.3551 0001856  98.8810 261.2532 13.17650582216655"
  },
  {
    "name": "ONEWEB-0438",
    "noradId": "51634",
    "line1": "1 51634U 22012N   26191.01053166  .00000724  00000+0  20374-2 0  9997",
    "line2": "2 51634  87.8811  31.7325 0001935  81.0072 279.1275 13.10374648212332"
  },
  {
    "name": "ONEWEB-0439",
    "noradId": "51635",
    "line1": "1 51635U 22012P   26190.47942902  .00000555  00000+0  15539-2 0  9991",
    "line2": "2 51635  87.8813  31.8262 0001826  86.8910 273.2427 13.10371799212247"
  },
  {
    "name": "ONEWEB-0442",
    "noradId": "51636",
    "line1": "1 51636U 22012Q   26191.44110018  .00000018  00000+0  12522-4 0  9990",
    "line2": "2 51636  87.9135   1.2515 0001877  73.3571 286.7767 13.17650212216739"
  },
  {
    "name": "ONEWEB-0443",
    "noradId": "51637",
    "line1": "1 51637U 22012R   26190.70112269  .00000008  00000+0 -13401-4 0  9996",
    "line2": "2 51637  87.9133   1.4000 0001484  89.3046 270.8256 13.17649662216685"
  },
  {
    "name": "ONEWEB-0444",
    "noradId": "51638",
    "line1": "1 51638U 22012S   26191.00374633  .00000638  00000+0  17905-2 0  9995",
    "line2": "2 51638  87.8816  31.7198 0001662  87.3520 272.7797 13.10376385212320"
  },
  {
    "name": "ONEWEB-0445",
    "noradId": "51639",
    "line1": "1 51639U 22012T   26190.48959476  .00001556  00000+0  44204-2 0  9993",
    "line2": "2 51639  87.8819  31.8124 0002046  86.0774 274.0588 13.10365374212260"
  },
  {
    "name": "ONEWEB-0446",
    "noradId": "51640",
    "line1": "1 51640U 22012U   26191.00203143  .00000648  00000+0  18190-2 0  9993",
    "line2": "2 51640  87.8817  31.7373 0002183  83.8527 276.2849 13.10373826212319"
  },
  {
    "name": "ONEWEB-0448",
    "noradId": "51641",
    "line1": "1 51641U 22012V   26191.00714230  .00000694  00000+0  19514-2 0  9990",
    "line2": "2 51641  87.8809  31.7326 0001877  82.8756 277.2584 13.10376155212282"
  },
  {
    "name": "ONEWEB-0449",
    "noradId": "51642",
    "line1": "1 51642U 22012W   26190.47771979  .00000581  00000+0  16276-2 0  9991",
    "line2": "2 51642  87.8818  31.8244 0002029  69.0834 291.0511 13.10371498212220"
  },
  {
    "name": "ONEWEB-0451",
    "noradId": "51643",
    "line1": "1 51643U 22012X   26190.76187941  .00000123  00000+0  28235-3 0  9995",
    "line2": "2 51643  87.9148   1.3538 0001752  85.1494 274.9837 13.17651103216630"
  },
  {
    "name": "ONEWEB-0452",
    "noradId": "51644",
    "line1": "1 51644U 22012Y   26191.44360828 -.00000053  00000+0 -16863-3 0  9997",
    "line2": "2 51644  87.9123   1.2529 0001514  88.7000 271.4305 13.17647452216736"
  },
  {
    "name": "ONEWEB-0456",
    "noradId": "51646",
    "line1": "1 51646U 22012AA  26190.48618068  .00000300  00000+0  82444-3 0  9995",
    "line2": "2 51646  87.8821  31.8114 0001781  90.0368 270.0964 13.10369072212262"
  },
  {
    "name": "ONEWEB-0457",
    "noradId": "51647",
    "line1": "1 51647U 22012AB  26190.99851723  .00000488  00000+0  13609-2 0  9992",
    "line2": "2 51647  87.8817  31.7256 0002162  80.1924 279.9448 13.10378326212331"
  },
  {
    "name": "ONEWEB-0458",
    "noradId": "51648",
    "line1": "1 51648U 22012AC  26191.01985755  .00006652  00000+0  19015-1 0  9995",
    "line2": "2 51648  87.8812  31.7095 0001621  84.8375 275.2938 13.10338146212292"
  },
  {
    "name": "ONEWEB-0461",
    "noradId": "51649",
    "line1": "1 51649U 22012AD  26191.54149360  .00000032  00000+0  49547-4 0  9990",
    "line2": "2 51649  87.9149   1.2126 0001970  89.4703 270.6654 13.17649956216960"
  },
  {
    "name": "ONEWEB-0463",
    "noradId": "51650",
    "line1": "1 51650U 22012AE  26191.44699603  .00000022  00000+0  22217-4 0  9995",
    "line2": "2 51650  87.9137   1.2515 0002010  89.8995 270.2367 13.17650042216734"
  },
  {
    "name": "ONEWEB-0464",
    "noradId": "51651",
    "line1": "1 51651U 22012AF  26191.01731554  .00000520  00000+0  14547-2 0  9999",
    "line2": "2 51651  87.8807  31.7309 0001551  87.2705 272.8600 13.10370972212319"
  },
  {
    "name": "ONEWEB-0468",
    "noradId": "51652",
    "line1": "1 51652U 22012AG  26191.86231858  .00000476  00000+0  13285-2 0  9993",
    "line2": "2 51652  87.8812  31.5558 0001661  92.5724 267.5593 13.10369443212405"
  },
  {
    "name": "ONEWEB-0473",
    "noradId": "51653",
    "line1": "1 51653U 22012AH  26191.00884452  .00000728  00000+0  20489-2 0  9998",
    "line2": "2 51653  87.8820  31.7285 0001863  88.9968 271.1373 13.10373507212297"
  },
  {
    "name": "ONEWEB-0474",
    "noradId": "51654",
    "line1": "1 51654U 22012AJ  26191.00034886  .00000557  00000+0  15593-2 0  9997",
    "line2": "2 51654  87.8824  31.7165 0001542  90.5379 269.5925 13.10376082212282"
  },
  {
    "name": "ONEWEB-0475",
    "noradId": "51655",
    "line1": "1 51655U 22012AK  26190.69944422  .00000074  00000+0  15811-3 0  9996",
    "line2": "2 51655  87.9137   1.3937 0001283 105.4247 254.7027 13.17648335216657"
  },
  {
    "name": "ONEWEB-0490",
    "noradId": "54113",
    "line1": "1 54113U 22138A   26190.27308900 -.00000003  00000+0 -39889-4 0  9992",
    "line2": "2 54113  87.9194 300.5692 0001996 106.3914 253.7438 13.19726523179747"
  },
  {
    "name": "ONEWEB-0492",
    "noradId": "54114",
    "line1": "1 54114U 22138B   26191.28396472  .00000016  00000+0  74077-5 0  9997",
    "line2": "2 54114  87.9188 300.3686 0002209 105.3172 254.8205 13.19727906179880"
  },
  {
    "name": "ONEWEB-0495",
    "noradId": "54115",
    "line1": "1 54115U 22138C   26191.26186690  .00000068  00000+0  13687-3 0  9990",
    "line2": "2 54115  87.9182 300.3756 0002060 120.4601 239.6736 13.19726102179868"
  },
  {
    "name": "ONEWEB-0497",
    "noradId": "54116",
    "line1": "1 54116U 22138D   26191.27450409 -.00000012  00000+0 -62415-4 0  9999",
    "line2": "2 54116  87.9198 300.3657 0002040 103.8957 256.2403 13.19725779179857"
  },
  {
    "name": "ONEWEB-0499",
    "noradId": "54117",
    "line1": "1 54117U 22138E   26191.25790659  .00000069  00000+0  14124-3 0  9995",
    "line2": "2 54117  87.9183 300.3773 0001874 107.9636 252.1701 13.19723956179866"
  },
  {
    "name": "ONEWEB-0500",
    "noradId": "54118",
    "line1": "1 54118U 22138F   26191.26029221  .00000086  00000+0  18209-3 0  9994",
    "line2": "2 54118  87.9189 300.3729 0002057  99.9365 260.2000 13.19725598179874"
  },
  {
    "name": "ONEWEB-0501",
    "noradId": "54119",
    "line1": "1 54119U 22138G   26190.30468821  .00000464  00000+0  11274-2 0  9996",
    "line2": "2 54119  87.9198 300.5610 0001984 111.0393 249.0952 13.19725024179720"
  }
]